STARLINK-31197          
1 58859U 24019G   26068.52348603 -.00000541  00000+0 -10146-4 0  9991
2 58859  43.0000 250.1498 0000575 238.4464 121.6331 15.27580405119051
FLOCK 4G-30             
1 62679U 25009BY  26068.70871344  .00013147  00000+0  49475-3 0  9999
2 62679  97.3969 150.6012 0003795 342.4152  17.6955 15.27244548121341
